idElset,classificationMarking,satNo,epoch,meanMotion,idOnOrbit,uct,eccentricity,inclination,raan,argOfPerigee,meanAnomaly,bStar,meanMotionDot,meanMotionDDot,semiMajorAxis,period,apogee,perigee,origObjectId,line1,line2,createdAt,createdBy,source,dataMode,ephemType,origNetwork,elset
940482d1-9c99-4b47-b49c-af23ff3a98f4,U//PR-EXO-ELSETS,20473,2025-08-09T18:59:25.996791Z,1.002893243661052,20473,False,0.0005449695838499051,14.30914306122593,348.7600811445042,161.3290777115016,147.0511286370917,0.0,0.0,0.0,42159.81780870893,1435.845748390221,42182.79362707533,42136.84199034252,20473,1 20473U 90011A   25221.79127311 +.00000000 +00000+0 +00000+0 2 99999,2 20473  14.3091 348.7601 0005449 161.3291 147.0511  1.00289324000008,2025-08-09T21:48:32.047Z,system.exo,EXO,REAL,2,OPS1,"{'NORAD_ID': 20473, 'classification': 'U', 'COSPAR_ID': '90011A', 'BC': 0.0, 'n_ddot': 0.0, 'B_star': 0.0, 'ephemeris_type': 2, 'elset_num': 9999, 'inclination': 14.3091, 'RAAN': 348.7601, 'eccentricity': 0.0005449, 'perigee': 161.3291, 'mean_anomaly': 147.0511, 'mean_motion': 1.00289324, 'rev_num': 0, 'line1': '1 20473U 90011A   25221.79127311 +.00000000 +00000+0 +00000+0 2 99999', 'line2': '2 20473  14.3091 348.7601 0005449 161.3291 147.0511  1.00289324000008', 'epoch': datetime.datetime(2025, 8, 9, 18, 59, 25, 996704)}"
16003f8e-8beb-402f-901f-10c660303535,U//PR-EXO-ELSETS,15139,2025-08-09T18:59:42.304730Z,1.014218044296114,15139,False,0.001763730447488104,7.665960367080737,303.3406156576854,47.26411901374362,254.4412243271783,0.0,0.0,0.0,41845.3919885674,1419.813035370897,41919.19598050471,41771.58799663009,15139,1 15139U 84028F   25221.79146186 +.00000000 +00000+0 +00000+0 2 99994,2 15139   7.6660 303.3406 0017637  47.2641 254.4412  1.01421804000006,2025-08-09T19:42:31.533Z,system.exo,EXO,REAL,2,OPS1,"{'NORAD_ID': 15139, 'classification': 'U', 'COSPAR_ID': '84028F', 'BC': 0.0, 'n_ddot': 0.0, 'B_star': 0.0, 'ephemeris_type': 2, 'elset_num': 9999, 'inclination': 7.666, 'RAAN': 303.3406, 'eccentricity': 0.0017637, 'perigee': 47.2641, 'mean_anomaly': 254.4412, 'mean_motion': 1.01421804, 'rev_num': 0, 'line1': '1 15139U 84028F   25221.79146186 +.00000000 +00000+0 +00000+0 2 99994', 'line2': '2 15139   7.6660 303.3406 0017637  47.2641 254.4412  1.01421804000006', 'epoch': datetime.datetime(2025, 8, 9, 18, 59, 42, 304704)}"
66da6c70-cfa2-4dfe-b936-e4ba9e6bfd86,U//PR-EXO-ELSETS,13974,2025-08-09T20:38:42.689165Z,1.002662804002608,13974,False,4.296867756549536e-05,8.841978775611436,308.4779619630903,228.7403763020215,176.0250860014142,0.0,0.0,0.0,42166.27722316315,1436.175745476497,42168.0890523333,42164.46539399301,13974,1 13974U 83028A   25221.86021631 +.00000000 +00000+0 +00000+0 2 99993,2 13974   8.8420 308.4780 0000429 228.7404 176.0251  1.00266280000007,2025-08-09T21:18:30.234Z,system.exo,EXO,REAL,2,OPS1,"{'NORAD_ID': 13974, 'classification': 'U', 'COSPAR_ID': '83028A', 'BC': 0.0, 'n_ddot': 0.0, 'B_star': 0.0, 'ephemeris_type': 2, 'elset_num': 9999, 'inclination': 8.842, 'RAAN': 308.478, 'eccentricity': 4.29e-05, 'perigee': 228.7404, 'mean_anomaly': 176.0251, 'mean_motion': 1.0026628, 'rev_num': 0, 'line1': '1 13974U 83028A   25221.86021631 +.00000000 +00000+0 +00000+0 2 99993', 'line2': '2 13974   8.8420 308.4780 0000429 228.7404 176.0251  1.00266280000007', 'epoch': datetime.datetime(2025, 8, 9, 20, 38, 42, 689184)}"
9c602e5e-0b1e-45ed-b525-01a04bb29d46,U//PR-EXO-ELSETS,34710,2025-08-09T19:03:09.613844Z,0.9811215463326951,34710,False,0.001144204538034893,2.215788314267146,84.0937201931702,86.51478239672358,268.5961652153771,0.0,0.0,0.0,42781.23526620966,1467.708058581052,42830.185749744,42732.28478267533,34710,1 34710U 09016A   25221.79386127 +.00000000 +00000+0 +00000+0 2 99995,2 34710   2.2158  84.0937 0011442  86.5148 268.5962  0.98112154000009,2025-08-09T21:36:31.604Z,system.exo,EXO,REAL,2,OPS1,"{'NORAD_ID': 34710, 'classification': 'U', 'COSPAR_ID': '09016A', 'BC': 0.0, 'n_ddot': 0.0, 'B_star': 0.0, 'ephemeris_type': 2, 'elset_num': 9999, 'inclination': 2.2158, 'RAAN': 84.0937, 'eccentricity': 0.0011442, 'perigee': 86.5148, 'mean_anomaly': 268.5962, 'mean_motion': 0.98112154, 'rev_num': 0, 'line1': '1 34710U 09016A   25221.79386127 +.00000000 +00000+0 +00000+0 2 99995', 'line2': '2 34710   2.2158  84.0937 0011442  86.5148 268.5962  0.98112154000009', 'epoch': datetime.datetime(2025, 8, 9, 19, 3, 9, 613728)}"
8a4f5c4a-15f3-4317-9988-7da201962250,U//PR-EXO-ELSETS,19484,2025-08-09T19:04:48.173117Z,0.9979115811096542,19484,False,0.0003787924803800664,14.53285127775166,3.262695291459097,294.5992773617618,324.7730855477192,0.0,0.0,0.0,42300.01167718454,1443.013616896553,42316.03460352783,42283.98875084123,19484,1 19484U 88081B   25221.79500200 +.00000000 +00000+0 +00000+0 2 99995,2 19484  14.5329   3.2627 0003787 294.5993 324.7731  0.99791158000004,2025-08-09T22:33:30.676Z,system.exo,EXO,REAL,2,OPS1,"{'NORAD_ID': 19484, 'classification': 'U', 'COSPAR_ID': '88081B', 'BC': 0.0, 'n_ddot': 0.0, 'B_star': 0.0, 'ephemeris_type': 2, 'elset_num': 9999, 'inclination': 14.5329, 'RAAN': 3.2627, 'eccentricity': 0.0003787, 'perigee': 294.5993, 'mean_anomaly': 324.7731, 'mean_motion': 0.99791158, 'rev_num': 0, 'line1': '1 19484U 88081B   25221.79500200 +.00000000 +00000+0 +00000+0 2 99995', 'line2': '2 19484  14.5329   3.2627 0003787 294.5993 324.7731  0.99791158000004', 'epoch': datetime.datetime(2025, 8, 9, 19, 4, 48, 172800)}"
7400f814-a7bd-440c-9a85-de4ec9489c66,U//PR-EXO-ELSETS,29520,2025-08-09T19:06:01.208166Z,0.9880861607098629,29520,False,0.0006025431345197553,2.03161887031662,85.18421372361347,330.3710795531036,292.1720243180914,0.0,0.0,0.0,42579.96676283648,1457.36278602007,42605.62302947751,42554.31049619546,29520,1 29520U 06049A   25221.79584732 +.00000000 +00000+0 +00000+0 2 99993,2 29520   2.0316  85.1842 0006025 330.3711 292.1720  0.98808616000000,2025-08-09T20:51:30.355Z,system.exo,EXO,REAL,2,OPS1,"{'NORAD_ID': 29520, 'classification': 'U', 'COSPAR_ID': '06049A', 'BC': 0.0, 'n_ddot': 0.0, 'B_star': 0.0, 'ephemeris_type': 2, 'elset_num': 9999, 'inclination': 2.0316, 'RAAN': 85.1842, 'eccentricity': 0.0006025, 'perigee': 330.3711, 'mean_anomaly': 292.172, 'mean_motion': 0.98808616, 'rev_num': 0, 'line1': '1 29520U 06049A   25221.79584732 +.00000000 +00000+0 +00000+0 2 99993', 'line2': '2 29520   2.0316  85.1842 0006025 330.3711 292.1720  0.98808616000000', 'epoch': datetime.datetime(2025, 8, 9, 19, 6, 1, 208448)}"
c04099f9-9b89-421b-b063-d11d073a4cb0,U//PR-EXO-ELSETS,8476,2025-08-09T19:06:41.500846Z,0.9960294531598334,8476,False,0.001594256196277954,8.65522881190399,306.7769171238866,262.1990551780432,224.4202095723577,0.0,0.0,0.0,42353.28251271069,1445.740379897102,42420.80449578929,42285.76052963209,8476,1 08476U 75117A   25221.79631367 +.00000000 +00000+0 +00000+0 2 99999,2 08476   8.6552 306.7769 0015942 262.1991 224.4202  0.99602945000002,2025-08-09T21:39:30.007Z,system.exo,EXO,REAL,2,OPS1,"{'NORAD_ID': 8476, 'classification': 'U', 'COSPAR_ID': '75117A', 'BC': 0.0, 'n_ddot': 0.0, 'B_star': 0.0, 'ephemeris_type': 2, 'elset_num': 9999, 'inclination': 8.6552, 'RAAN': 306.7769, 'eccentricity': 0.0015942, 'perigee': 262.1991, 'mean_anomaly': 224.4202, 'mean_motion': 0.99602945, 'rev_num': 0, 'line1': '1 08476U 75117A   25221.79631367 +.00000000 +00000+0 +00000+0 2 99999', 'line2': '2 08476   8.6552 306.7769 0015942 262.1991 224.4202  0.99602945000002', 'epoch': datetime.datetime(2025, 8, 9, 19, 6, 41, 501088)}"
c2a25400-6e88-4525-b88f-2d463c0b36de,U//PR-EXO-ELSETS,23175,2025-08-09T19:06:52.138487Z,0.9918711654233928,23175,False,0.0004914812307695923,11.6816505295696,37.05143785130235,86.12212211501124,171.3483236726848,0.0,0.0,0.0,42471.57361892086,1451.801453856477,42492.44760019582,42450.69963764591,23175,1 23175U 94040A   25221.79643679 +.00000000 +00000+0 +00000+0 2 99997,2 23175  11.6817  37.0514 0004914  86.1221 171.3483  0.99187116000001,2025-08-09T20:18:30.774Z,system.exo,EXO,REAL,2,OPS1,"{'NORAD_ID': 23175, 'classification': 'U', 'COSPAR_ID': '94040A', 'BC': 0.0, 'n_ddot': 0.0, 'B_star': 0.0, 'ephemeris_type': 2, 'elset_num': 9999, 'inclination': 11.6817, 'RAAN': 37.0514, 'eccentricity': 0.0004914, 'perigee': 86.1221, 'mean_anomaly': 171.3483, 'mean_motion': 0.99187116, 'rev_num': 0, 'line1': '1 23175U 94040A   25221.79643679 +.00000000 +00000+0 +00000+0 2 99997', 'line2': '2 23175  11.6817  37.0514 0004914  86.1221 171.3483  0.99187116000001', 'epoch': datetime.datetime(2025, 8, 9, 19, 6, 52, 138656)}"
803c1b6c-4d1d-4a2d-8e8a-99e60445c798,U//PR-EXO-ELSETS,23051,2025-08-09T20:38:51.609334Z,0.9890045783610905,23051,False,0.0004808639313529308,14.16109671639133,16.00417730232718,84.872101653583,272.1306051092708,0.0,0.0,0.0,42553.60203953222,1456.009437677496,42574.06453190218,42533.13954716226,23051,1 23051U 94022A   25221.86031955 +.00000000 +00000+0 +00000+0 2 99996,2 23051  14.1611  16.0042 0004808  84.8721 272.1306  0.98900457000003,2025-08-09T21:51:32.408Z,system.exo,EXO,REAL,2,OPS1,"{'NORAD_ID': 23051, 'classification': 'U', 'COSPAR_ID': '94022A', 'BC': 0.0, 'n_ddot': 0.0, 'B_star': 0.0, 'ephemeris_type': 2, 'elset_num': 9999, 'inclination': 14.1611, 'RAAN': 16.0042, 'eccentricity': 0.0004808, 'perigee': 84.8721, 'mean_anomaly': 272.1306, 'mean_motion': 0.98900457, 'rev_num': 0, 'line1': '1 23051U 94022A   25221.86031955 +.00000000 +00000+0 +00000+0 2 99996', 'line2': '2 23051  14.1611  16.0042 0004808  84.8721 272.1306  0.98900457000003', 'epoch': datetime.datetime(2025, 8, 9, 20, 38, 51, 609120)}"
